[Satellite]
VERSION=1.1
NAME=TUBSAT A
NICKNAME=TUBSAT A
TLE1=1 21577U 91050D   11059.78327743  .00000032  00000-0  24788-4 0    50
TLE2=2 21577  98.5463  11.0591 0006213   0.9050 359.2163 14.38597999 29578
